[{"OBJECT_NAME":"ONEWEB-0015","OBJECT_ID":"2024-188A","EPOCH":"2026-03-05T14:55:54.698304","MEAN_MOTION":13.11416556,"ECCENTRICITY":0.00015228,"INCLINATION":87.8851,"RA_OF_ASC_NODE":41.6878,"ARG_OF_PERICENTER":67.1332,"MEAN_ANOMALY":292.9956,"EPHEMERIS_TYPE":0,"CLASSIFICATION_TYPE":"U","NORAD_CAT_ID":61594,"ELEMENT_SET_NO":999,"REV_AT_EPOCH":7088,"BSTAR":0.001325928,"MEAN_MOTION_DOT":4.83e-6,"MEAN_MOTION_DDOT":0},{"OBJECT_NAME":"ONEWEB-0687","OBJECT_ID":"2024-188B","EPOCH":"2026-03-05T10:13:29.445600","MEAN_MOTION":13.17650335,"ECCENTRICITY":0.0002018,"INCLINATION":87.9132,"RA_OF_ASC_NODE":26.4898,"ARG_OF_PERICENTER":66.9868,"MEAN_ANOMALY":293.1476,"EPHEMERIS_TYPE":0,"CLASSIFICATION_TYPE":"U","NORAD_CAT_ID":61595,"ELEMENT_SET_NO":999,"REV_AT_EPOCH":7223,"BSTAR":4.527453e-5,"MEAN_MOTION_DOT":3.0e-7,"MEAN_MOTION_DDOT":0},{"OBJECT_NAME":"ONEWEB-0688","OBJECT_ID":"2024-188C","EPOCH":"2026-03-05T14:33:29.839104","MEAN_MOTION":13.17650475,"ECCENTRICITY":0.00013903,"INCLINATION":87.9136,"RA_OF_ASC_NODE":26.4528,"ARG_OF_PERICENTER":36.6001,"MEAN_ANOMALY":323.5226,"EPHEMERIS_TYPE":0,"CLASSIFICATION_TYPE":"U","NORAD_CAT_ID":61596,"ELEMENT_SET_NO":999,"REV_AT_EPOCH":7225,"BSTAR":0.00017104014,"MEAN_MOTION_DOT":7.9e-7,"MEAN_MOTION_DDOT":0},{"OBJECT_NAME":"ONEWEB-0689","OBJECT_ID":"2024-188D","EPOCH":"2026-03-05T10:15:07.355808","MEAN_MOTION":13.11416847,"ECCENTRICITY":0.00021286,"INCLINATION":87.8868,"RA_OF_ASC_NODE":41.6665,"ARG_OF_PERICENTER":77.7399,"MEAN_ANOMALY":282.3967,"EPHEMERIS_TYPE":0,"CLASSIFICATION_TYPE":"U","NORAD_CAT_ID":61597,"ELEMENT_SET_NO":999,"REV_AT_EPOCH":7085,"BSTAR":-0.0012877098,"MEAN_MOTION_DOT":-4.44e-6,"MEAN_MOTION_DDOT":0},{"OBJECT_NAME":"ONEWEB-0690","OBJECT_ID":"2024-188E","EPOCH":"2026-03-05T10:29:46.977792","MEAN_MOTION":13.11417346,"ECCENTRICITY":0.0001659,"INCLINATION":87.8871,"RA_OF_ASC_NODE":41.6837,"ARG_OF_PERICENTER":101.3544,"MEAN_ANOMALY":258.7771,"EPHEMERIS_TYPE":0,"CLASSIFICATION_TYPE":"U","NORAD_CAT_ID":61598,"ELEMENT_SET_NO":999,"REV_AT_EPOCH":7103,"BSTAR":-0.00018636055,"MEAN_MOTION_DOT":-5.3e-7,"MEAN_MOTION_DDOT":0},{"OBJECT_NAME":"ONEWEB-0691","OBJECT_ID":"2024-188F","EPOCH":"2026-03-05T10:22:27.100704","MEAN_MOTION":13.11417487,"ECCENTRICITY":0.00016301,"INCLINATION":87.8872,"RA_OF_ASC_NODE":41.5854,"ARG_OF_PERICENTER":70.6809,"MEAN_ANOMALY":289.4496,"EPHEMERIS_TYPE":0,"CLASSIFICATION_TYPE":"U","NORAD_CAT_ID":61599,"ELEMENT_SET_NO":999,"REV_AT_EPOCH":7088,"BSTAR":-0.00099195668,"MEAN_MOTION_DOT":-3.39e-6,"MEAN_MOTION_DDOT":0},{"OBJECT_NAME":"ONEWEB-0692","OBJECT_ID":"2024-188G","EPOCH":"2026-03-05T09:01:54.073056","MEAN_MOTION":13.11416706,"ECCENTRICITY":0.00027336,"INCLINATION":87.8853,"RA_OF_ASC_NODE":41.7298,"ARG_OF_PERICENTER":90.5444,"MEAN_ANOMALY":269.5997,"EPHEMERIS_TYPE":0,"CLASSIFICATION_TYPE":"U","NORAD_CAT_ID":61600,"ELEMENT_SET_NO":999,"REV_AT_EPOCH":7086,"BSTAR":0.0014655506,"MEAN_MOTION_DOT":5.32e-6,"MEAN_MOTION_DDOT":0},{"OBJECT_NAME":"ONEWEB-0693","OBJECT_ID":"2024-188H","EPOCH":"2026-03-05T07:33:06.411456","MEAN_MOTION":13.17650727,"ECCENTRICITY":0.00012631,"INCLINATION":87.9129,"RA_OF_ASC_NODE":26.5333,"ARG_OF_PERICENTER":104.4164,"MEAN_ANOMALY":255.7108,"EPHEMERIS_TYPE":0,"CLASSIFICATION_TYPE":"U","NORAD_CAT_ID":61601,"ELEMENT_SET_NO":999,"REV_AT_EPOCH":7220,"BSTAR":1.3049877e-5,"MEAN_MOTION_DOT":1.8e-7,"MEAN_MOTION_DDOT":0},{"OBJECT_NAME":"ONEWEB-0695","OBJECT_ID":"2024-188J","EPOCH":"2026-03-05T10:17:34.632384","MEAN_MOTION":13.11418408,"ECCENTRICITY":0.00024036,"INCLINATION":87.8855,"RA_OF_ASC_NODE":41.7103,"ARG_OF_PERICENTER":80.7106,"MEAN_ANOMALY":279.4294,"EPHEMERIS_TYPE":0,"CLASSIFICATION_TYPE":"U","NORAD_CAT_ID":61602,"ELEMENT_SET_NO":999,"REV_AT_EPOCH":7086,"BSTAR":-0.0012108601,"MEAN_MOTION_DOT":-4.16e-6,"MEAN_MOTION_DDOT":0},{"OBJECT_NAME":"ONEWEB-0697","OBJECT_ID":"2024-188K","EPOCH":"2026-03-05T11:03:58.789440","MEAN_MOTION":13.11415901,"ECCENTRICITY":0.00026243,"INCLINATION":87.8857,"RA_OF_ASC_NODE":41.693,"ARG_OF_PERICENTER":90.4253,"MEAN_ANOMALY":269.7175,"EPHEMERIS_TYPE":0,"CLASSIFICATION_TYPE":"U","NORAD_CAT_ID":61603,"ELEMENT_SET_NO":999,"REV_AT_EPOCH":7085,"BSTAR":0.00167134,"MEAN_MOTION_DOT":6.05e-6,"MEAN_MOTION_DDOT":0},{"OBJECT_NAME":"ONEWEB-0698","OBJECT_ID":"2024-188L","EPOCH":"2026-03-04T10:43:57.255744","MEAN_MOTION":13.11417891,"ECCENTRICITY":0.00024651,"INCLINATION":87.885,"RA_OF_ASC_NODE":41.9107,"ARG_OF_PERICENTER":111.389,"MEAN_ANOMALY":248.7501,"EPHEMERIS_TYPE":0,"CLASSIFICATION_TYPE":"U","NORAD_CAT_ID":61604,"ELEMENT_SET_NO":999,"REV_AT_EPOCH":7074,"BSTAR":0.00040282888,"MEAN_MOTION_DOT":1.55e-6,"MEAN_MOTION_DDOT":0},{"OBJECT_NAME":"ONEWEB-0699","OBJECT_ID":"2024-188M","EPOCH":"2026-03-05T12:31:43.781664","MEAN_MOTION":13.10369894,"ECCENTRICITY":0.00024748,"INCLINATION":87.8772,"RA_OF_ASC_NODE":56.9056,"ARG_OF_PERICENTER":93.7818,"MEAN_ANOMALY":266.3593,"EPHEMERIS_TYPE":0,"CLASSIFICATION_TYPE":"U","NORAD_CAT_ID":61605,"ELEMENT_SET_NO":999,"REV_AT_EPOCH":6973,"BSTAR":-2.1637166e-5,"MEAN_MOTION_DOT":5.0e-8,"MEAN_MOTION_DDOT":0},{"OBJECT_NAME":"ONEWEB-0700","OBJECT_ID":"2024-188N","EPOCH":"2026-03-05T12:34:06.770208","MEAN_MOTION":13.10369508,"ECCENTRICITY":0.0002521,"INCLINATION":87.8784,"RA_OF_ASC_NODE":56.7993,"ARG_OF_PERICENTER":86.8961,"MEAN_ANOMALY":273.2455,"EPHEMERIS_TYPE":0,"CLASSIFICATION_TYPE":"U","NORAD_CAT_ID":61606,"ELEMENT_SET_NO":999,"REV_AT_EPOCH":6972,"BSTAR":-0.00026379204,"MEAN_MOTION_DOT":-7.9e-7,"MEAN_MOTION_DDOT":0},{"OBJECT_NAME":"ONEWEB-0701","OBJECT_ID":"2024-188P","EPOCH":"2026-03-05T11:08:02.836608","MEAN_MOTION":13.10372845,"ECCENTRICITY":0.00026214,"INCLINATION":87.8775,"RA_OF_ASC_NODE":56.9169,"ARG_OF_PERICENTER":96.0956,"MEAN_ANOMALY":264.047,"EPHEMERIS_TYPE":0,"CLASSIFICATION_TYPE":"U","NORAD_CAT_ID":61607,"ELEMENT_SET_NO":999,"REV_AT_EPOCH":6972,"BSTAR":-0.0017583521,"MEAN_MOTION_DOT":-6.01e-6,"MEAN_MOTION_DDOT":0},{"OBJECT_NAME":"ONEWEB-0702","OBJECT_ID":"2024-188Q","EPOCH":"2026-03-05T15:17:52.034784","MEAN_MOTION":13.1141658,"ECCENTRICITY":0.00028567,"INCLINATION":87.8868,"RA_OF_ASC_NODE":41.5607,"ARG_OF_PERICENTER":86.9948,"MEAN_ANOMALY":273.1507,"EPHEMERIS_TYPE":0,"CLASSIFICATION_TYPE":"U","NORAD_CAT_ID":61608,"ELEMENT_SET_NO":999,"REV_AT_EPOCH":7091,"BSTAR":-0.00034253278,"MEAN_MOTION_DOT":-1.09e-6,"MEAN_MOTION_DDOT":0},{"OBJECT_NAME":"ONEWEB-0704","OBJECT_ID":"2024-188R","EPOCH":"2026-03-05T10:51:20.044512","MEAN_MOTION":13.10371069,"ECCENTRICITY":0.00028624,"INCLINATION":87.8784,"RA_OF_ASC_NODE":56.895,"ARG_OF_PERICENTER":88.3747,"MEAN_ANOMALY":271.7709,"EPHEMERIS_TYPE":0,"CLASSIFICATION_TYPE":"U","NORAD_CAT_ID":61609,"ELEMENT_SET_NO":999,"REV_AT_EPOCH":6970,"BSTAR":-0.0010340962,"MEAN_MOTION_DOT":-3.48e-6,"MEAN_MOTION_DDOT":0},{"OBJECT_NAME":"ONEWEB-0705","OBJECT_ID":"2024-188S","EPOCH":"2026-03-05T12:48:27.010944","MEAN_MOTION":13.10371041,"ECCENTRICITY":0.00026321,"INCLINATION":87.8774,"RA_OF_ASC_NODE":56.8924,"ARG_OF_PERICENTER":66.2445,"MEAN_ANOMALY":293.8958,"EPHEMERIS_TYPE":0,"CLASSIFICATION_TYPE":"U","NORAD_CAT_ID":61610,"ELEMENT_SET_NO":999,"REV_AT_EPOCH":6188,"BSTAR":-0.0015408194,"MEAN_MOTION_DOT":-5.25e-6,"MEAN_MOTION_DDOT":0}]
