ONEWEB-0015             
1 61594U 24188A   26064.62216086  .00000483  00000+0  13259-2 0  9993
2 61594  87.8851  41.6878 0001522  67.1332 292.9956 13.11416556 70888
ONEWEB-0687             
1 61595U 24188B   26064.42603525  .00000030  00000+0  45275-4 0  9993
2 61595  87.9132  26.4898 0002018  66.9868 293.1476 13.17650335 72239
ONEWEB-0688             
1 61596U 24188C   26064.60659536  .00000079  00000+0  17104-3 0  9999
2 61596  87.9136  26.4528 0001390  36.6001 323.5226 13.17650475 72257
ONEWEB-0689             
1 61597U 24188D   26064.42716847 -.00000444  00000+0 -12877-2 0  9998
2 61597  87.8868  41.6665 0002128  77.7399 282.3967 13.11416847 70851
ONEWEB-0690             
1 61598U 24188E   26064.43734928 -.00000053  00000+0 -18636-3 0  9996
2 61598  87.8871  41.6837 0001659 101.3544 258.7771 13.11417346 71037
ONEWEB-0691             
1 61599U 24188F   26064.43225811 -.00000339  00000+0 -99196-3 0  9990
2 61599  87.8872  41.5854 0001630  70.6809 289.4496 13.11417487 70881
ONEWEB-0692             
1 61600U 24188G   26064.37632029  .00000532  00000+0  14656-2 0  9999
2 61600  87.8853  41.7298 0002733  90.5444 269.5997 13.11416706 70864
ONEWEB-0693             
1 61601U 24188H   26064.31465754  .00000018  00000+0  13050-4 0  9991
2 61601  87.9129  26.5333 0001263 104.4164 255.7108 13.17650727 72204
ONEWEB-0695             
1 61602U 24188J   26064.42887306 -.00000416  00000+0 -12109-2 0  9991
2 61602  87.8855  41.7103 0002403  80.7106 279.4294 13.11418408 70864
ONEWEB-0697             
1 61603U 24188K   26064.46109710  .00000605  00000+0  16713-2 0  9995
2 61603  87.8857  41.6930 0002624  90.4253 269.7175 13.11415901 70854
ONEWEB-0698             
1 61604U 24188L   26063.44719046  .00000155  00000+0  40283-3 0  9992
2 61604  87.8850  41.9107 0002465 111.3890 248.7501 13.11417891 70748
ONEWEB-0699             
1 61605U 24188M   26064.52203451  .00000005  00000+0 -21637-4 0  9999
2 61605  87.8772  56.9056 0002474  93.7818 266.3593 13.10369894 69736
ONEWEB-0700             
1 61606U 24188N   26064.52368947 -.00000079  00000+0 -26379-3 0  9991
2 61606  87.8784  56.7993 0002521  86.8961 273.2455 13.10369508 69728
ONEWEB-0701             
1 61607U 24188P   26064.46392172 -.00000601  00000+0 -17584-2 0  9990
2 61607  87.8775  56.9169 0002621  96.0956 264.0470 13.10372845 69727
ONEWEB-0702             
1 61608U 24188Q   26064.63740781 -.00000109  00000+0 -34253-3 0  9999
2 61608  87.8868  41.5607 0002856  86.9948 273.1507 13.11416580 70918
ONEWEB-0704             
1 61609U 24188R   26064.45231533 -.00000348  00000+0 -10341-2 0  9996
2 61609  87.8784  56.8950 0002862  88.3747 271.7709 13.10371069 69700
ONEWEB-0705             
1 61610U 24188S   26064.53364596 -.00000525  00000+0 -15408-2 0  9999
2 61610  87.8774  56.8924 0002632  66.2445 293.8958 13.10371041 61889
